[{"OBJECT_NAME":"STARLINK-34495","OBJECT_ID":"2025-129S","EPOCH":"2026-03-09T23:46:58.870560","MEAN_MOTION":14.9833839,"ECCENTRICITY":0.000237,"INCLINATION":70.0024,"RA_OF_ASC_NODE":73.6536,"ARG_OF_PERICENTER":262.0247,"MEAN_ANOMALY":98.0643,"EPHEMERIS_TYPE":0,"CLASSIFICATION_TYPE":"U","NORAD_CAT_ID":64428,"ELEMENT_SET_NO":999,"REV_AT_EPOCH":4133,"BSTAR":0.0002657714,"MEAN_MOTION_DOT":3.08e-5,"MEAN_MOTION_DDOT":0},{"OBJECT_NAME":"ANTELSAT","OBJECT_ID":"2014-033AA","EPOCH":"2026-03-09T21:56:19.142880","MEAN_MOTION":14.90152282,"ECCENTRICITY":0.00441676,"INCLINATION":97.764,"RA_OF_ASC_NODE":226.2739,"ARG_OF_PERICENTER":26.8149,"MEAN_ANOMALY":333.5339,"EPHEMERIS_TYPE":0,"CLASSIFICATION_TYPE":"U","NORAD_CAT_ID":40034,"ELEMENT_SET_NO":999,"REV_AT_EPOCH":63102,"BSTAR":0.00055679105,"MEAN_MOTION_DOT":5.434e-5,"MEAN_MOTION_DDOT":0}]
